start=new Date('2022-08-29T00:00:00.000Z').valueOf();
sats=[{"LAUNCH_DATE":"2021-05-26","REF_FRAME":"TEME","REV_AT_EPOCH":"6948","NORAD_CAT_ID":"48668","OBJECT_ID":"2021-044AG","INCLINATION":"53.0536","PERIOD":"95.591","RCS_SIZE":"LARGE","SITE":"AFETR","DECAY_DATE":null,"ARG_OF_PERICENTER":"92.7023","EPOCH":"2022-08-28T02:49:37.437024","CLASSIFICATION_TYPE":"U","OBJECT_NAME":"STARLINK-2738","GP_ID":"211178323","ECCENTRICITY":"0.00018260","MEAN_MOTION_DOT":"-0.00001206","SEMIMAJOR_AXIS":"6925.301","MEAN_MOTION_DDOT":"0.0000000000000","OBJECT_TYPE":"PAYLOAD","COUNTRY_CODE":"US","TLE_LINE2":"2 48668  53.0536 140.7348 0001826  92.7023 267.4175 15.06415578 69484","ELEMENT_SET_NO":"999","BSTAR":"-0.00006202000000","MEAN_ELEMENT_THEORY":"SGP4","RA_OF_ASC_NODE":"140.7348","TIME_SYSTEM":"UTC","EPHEMERIS_TYPE":"0","MEAN_MOTION":"15.06415578","PERIAPSIS":"545.901","FILE":"3549654","TLE_LINE1":"1 48668U 21044AG  22240.11779441 -.00001206  00000-0 -62020-4 0  9992","APOAPSIS":"548.430","CENTER_NAME":"EARTH","MEAN_ANOMALY":"267.4175"},{"FILE":"3550014","PERIAPSIS":"546.208","EPHEMERIS_TYPE":"0","TIME_SYSTEM":"UTC","MEAN_MOTION":"15.06405927","MEAN_ELEMENT_THEORY":"SGP4","BSTAR":"0.00001616100000","RA_OF_ASC_NODE":"137.4604","MEAN_ANOMALY":"271.1082","CENTER_NAME":"EARTH","APOAPSIS":"548.183","TLE_LINE1":"1 48669U 21044AH  22240.84393003 -.00000041  00000-0  16161-4 0  9999","MEAN_MOTION_DOT":"-0.00000041","SEMIMAJOR_AXIS":"6925.330","ECCENTRICITY":"0.00014260","GP_ID":"211212032","ELEMENT_SET_NO":"999","TLE_LINE2":"2 48669  53.0543 137.4604 0001426  89.0070 271.1082 15.06405927 69585","MEAN_MOTION_DDOT":"0.0000000000000","COUNTRY_CODE":"US","OBJECT_TYPE":"PAYLOAD","ARG_OF_PERICENTER":"89.0070","EPOCH":"2022-08-28T20:15:15.554592","DECAY_DATE":null,"SITE":"AFETR","PERIOD":"95.592","RCS_SIZE":"LARGE","OBJECT_NAME":"STARLINK-2707","CLASSIFICATION_TYPE":"U","REF_FRAME":"TEME","LAUNCH_DATE":"2021-05-26","INCLINATION":"53.0543","OBJECT_ID":"2021-044AH","REV_AT_EPOCH":"6958","NORAD_CAT_ID":"48669"},{"PERIAPSIS":"546.127","FILE":"3549654","BSTAR":"0.00016201000000","MEAN_ELEMENT_THEORY":"SGP4","RA_OF_ASC_NODE":"139.2642","TIME_SYSTEM":"UTC","EPHEMERIS_TYPE":"0","MEAN_MOTION":"15.06396402","MEAN_ANOMALY":"281.1646","APOAPSIS":"548.322","TLE_LINE1":"1 48670U 21044AJ  22240.44217956  .00002132  00000-0  16201-3 0  9995","CENTER_NAME":"EARTH","ECCENTRICITY":"0.00015850","MEAN_MOTION_DOT":"0.00002132","SEMIMAJOR_AXIS":"6925.360","GP_ID":"211177821","ELEMENT_SET_NO":"999","MEAN_MOTION_DDOT":"0.0000000000000","COUNTRY_CODE":"US","OBJECT_TYPE":"PAYLOAD","TLE_LINE2":"2 48670  53.0547 139.2642 0001585  78.9522 281.1646 15.06396402 69526","DECAY_DATE":null,"ARG_OF_PERICENTER":"78.9522","EPOCH":"2022-08-28T10:36:44.313984","PERIOD":"95.592","RCS_SIZE":"LARGE","SITE":"AFETR","CLASSIFICATION_TYPE":"U","OBJECT_NAME":"STARLINK-2763","REF_FRAME":"TEME","LAUNCH_DATE":"2021-05-26","OBJECT_ID":"2021-044AJ","INCLINATION":"53.0547","REV_AT_EPOCH":"6952","NORAD_CAT_ID":"48670"},{"CLASSIFICATION_TYPE":"U","OBJECT_NAME":"STARLINK-2745","RCS_SIZE":"LARGE","PERIOD":"95.592","SITE":"AFETR","DECAY_DATE":null,"EPOCH":"2022-08-28T02:33:42.752448","ARG_OF_PERICENTER":"74.0420","NORAD_CAT_ID":"48671","REV_AT_EPOCH":"6947","OBJECT_ID":"2021-044AK","INCLINATION":"53.0543","LAUNCH_DATE":"2021-05-26","REF_FRAME":"TEME","TLE_LINE1":"1 48671U 21044AK  22240.10674482  .00003264  00000-0  23788-3 0  9995","APOAPSIS":"548.180","CENTER_NAME":"EARTH","MEAN_ANOMALY":"286.0726","RA_OF_ASC_NODE":"140.7872","BSTAR":"0.00023788000000","MEAN_ELEMENT_THEORY":"SGP4","MEAN_MOTION":"15.06407419","TIME_SYSTEM":"UTC","EPHEMERIS_TYPE":"0","FILE":"3549654","PERIAPSIS":"546.201","COUNTRY_CODE":"US","OBJECT_TYPE":"PAYLOAD","MEAN_MOTION_DDOT":"0.0000000000000","TLE_LINE2":"2 48671  53.0543 140.7872 0001429  74.0420 286.0726 15.06407419 69474","ELEMENT_SET_NO":"999","GP_ID":"211177572","ECCENTRICITY":"0.00014290","SEMIMAJOR_AXIS":"6925.326","MEAN_MOTION_DOT":"0.00003264"},{"OBJECT_NAME":"STARLINK-2705","CLASSIFICATION_TYPE":"U","ARG_OF_PERICENTER":"76.6956","EPOCH":"2022-08-28T21:34:52.843008","DECAY_DATE":null,"SITE":"AFETR","PERIOD":"95.592","RCS_SIZE":"LARGE","INCLINATION":"53.0546","OBJECT_ID":"2021-044AL","REV_AT_EPOCH":"6959","NORAD_CAT_ID":"48672","REF_FRAME":"TEME","LAUNCH_DATE":"2021-05-26","MEAN_ANOMALY":"283.4203","CENTER_NAME":"EARTH","TLE_LINE1":"1 48672U 21044AL  22240.89922272  .00000592  00000-0  58634-4 0  9995","APOAPSIS":"548.263","PERIAPSIS":"546.151","FILE":"3550014","EPHEMERIS_TYPE":"0","TIME_SYSTEM":"UTC","MEAN_MOTION":"15.06402038","BSTAR":"0.00005863400000","MEAN_ELEMENT_THEORY":"SGP4","RA_OF_ASC_NODE":"137.2390","ELEMENT_SET_NO":"999","TLE_LINE2":"2 48672  53.0546 137.2390 0001525  76.6956 283.4203 15.06402038 69599","MEAN_MOTION_DDOT":"0.0000000000000","OBJECT_TYPE":"PAYLOAD","COUNTRY_CODE":"US","MEAN_MOTION_DOT":"0.00000592","SEMIMAJOR_AXIS":"6925.342","ECCENTRICITY":"0.00015250","GP_ID":"211211281"},{"REF_FRAME":"TEME","LAUNCH_DATE":"2021-05-26","OBJECT_ID":"2021-044AM","INCLINATION":"53.0562","REV_AT_EPOCH":"6959","NORAD_CAT_ID":"48673","DECAY_DATE":null,"ARG_OF_PERICENTER":"80.8608","EPOCH":"2022-08-28T21:29:33.745344","PERIOD":"95.592","RCS_SIZE":"LARGE","SITE":"AFETR","CLASSIFICATION_TYPE":"U","OBJECT_NAME":"STARLINK-2711","ECCENTRICITY":"0.00015990","MEAN_MOTION_DOT":"0.00002174","SEMIMAJOR_AXIS":"6925.323","GP_ID":"211212533","ELEMENT_SET_NO":"999","MEAN_MOTION_DDOT":"0.0000000000000","OBJECT_TYPE":"PAYLOAD","COUNTRY_CODE":"US","TLE_LINE2":"2 48673  53.0562 137.2530 0001599  80.8608 279.2561 15.06408355 69594","PERIAPSIS":"546.081","FILE":"3550014","MEAN_ELEMENT_THEORY":"SGP4","BSTAR":"0.00016476000000","RA_OF_ASC_NODE":"137.2530","EPHEMERIS_TYPE":"0","TIME_SYSTEM":"UTC","MEAN_MOTION":"15.06408355","MEAN_ANOMALY":"279.2561","TLE_LINE1":"1 48673U 21044AM  22240.89552946  .00002174  00000-0  16476-3 0  9998","APOAPSIS":"548.295","CENTER_NAME":"EARTH"},{"LAUNCH_DATE":"2021-05-26","REF_FRAME":"TEME","REV_AT_EPOCH":"6959","NORAD_CAT_ID":"48674","INCLINATION":"53.0544","OBJECT_ID":"2021-044AN","SITE":"AFETR","PERIOD":"95.592","RCS_SIZE":"LARGE","ARG_OF_PERICENTER":"72.5180","EPOCH":"2022-08-28T21:22:53.572512","DECAY_DATE":null,"OBJECT_NAME":"STARLINK-2712","CLASSIFICATION_TYPE":"U","GP_ID":"211212780","MEAN_MOTION_DOT":"0.00000452","SEMIMAJOR_AXIS":"6925.321","ECCENTRICITY":"0.00014430","TLE_LINE2":"2 48674  53.0544 137.2603 0001443  72.5180 287.5967 15.06408909 69594","MEAN_MOTION_DDOT":"0.0000000000000","OBJECT_TYPE":"PAYLOAD","COUNTRY_CODE":"US","ELEMENT_SET_NO":"999","TIME_SYSTEM":"UTC","EPHEMERIS_TYPE":"0","MEAN_MOTION":"15.06408909","BSTAR":"0.00004919900000","MEAN_ELEMENT_THEORY":"SGP4","RA_OF_ASC_NODE":"137.2603","FILE":"3550014","PERIAPSIS":"546.187","CENTER_NAME":"EARTH","TLE_LINE1":"1 48674U 21044AN  22240.89089783  .00000452  00000-0  49199-4 0  9999","APOAPSIS":"548.186","MEAN_ANOMALY":"287.5967"},{"ARG_OF_PERICENTER":"78.0803","EPOCH":"2022-08-28T21:18:56.943648","DECAY_DATE":null,"SITE":"AFETR","PERIOD":"95.592","RCS_SIZE":"MEDIUM","OBJECT_NAME":"STARLINK-2737","CLASSIFICATION_TYPE":"U","REF_FRAME":"TEME","LAUNCH_DATE":"2021-05-26","INCLINATION":"53.0551","OBJECT_ID":"2021-044AP","REV_AT_EPOCH":"6959","NORAD_CAT_ID":"48675","FILE":"3550014","PERIAPSIS":"546.185","EPHEMERIS_TYPE":"0","TIME_SYSTEM":"UTC","MEAN_MOTION":"15.06406049","MEAN_ELEMENT_THEORY":"SGP4","BSTAR":"0.00007043500000","RA_OF_ASC_NODE":"137.2864","MEAN_ANOMALY":"282.0350","CENTER_NAME":"EARTH","TLE_LINE1":"1 48675U 21044AP  22240.88815907  .00000768  00000-0  70435-4 0  9991","APOAPSIS":"548.205","MEAN_MOTION_DOT":"0.00000768","SEMIMAJOR_AXIS":"6925.330","ECCENTRICITY":"0.00014580","GP_ID":"211211532","ELEMENT_SET_NO":"999","TLE_LINE2":"2 48675  53.0551 137.2864 0001458  78.0803 282.0350 15.06406049 69590","MEAN_MOTION_DDOT":"0.0000000000000","OBJECT_TYPE":"PAYLOAD","COUNTRY_CODE":"US"},{"GP_ID":"211211782","ECCENTRICITY":"0.00016790","SEMIMAJOR_AXIS":"6925.342","MEAN_MOTION_DOT":"0.00001464","OBJECT_TYPE":"PAYLOAD","COUNTRY_CODE":"US","MEAN_MOTION_DDOT":"0.0000000000000","TLE_LINE2":"2 48676  53.0546 137.2931 0001679  75.0746 285.0429 15.06402162 69590","ELEMENT_SET_NO":"999","RA_OF_ASC_NODE":"137.2931","BSTAR":"0.00011716000000","MEAN_ELEMENT_THEORY":"SGP4","MEAN_MOTION":"15.06402162","TIME_SYSTEM":"UTC","EPHEMERIS_TYPE":"0","PERIAPSIS":"546.044","FILE":"3550014","TLE_LINE1":"1 48676U 21044AQ  22240.88447637  .00001464  00000-0  11716-3 0  9993","APOAPSIS":"548.370","CENTER_NAME":"EARTH","MEAN_ANOMALY":"285.0429","LAUNCH_DATE":"2021-05-26","REF_FRAME":"TEME","NORAD_CAT_ID":"48676","REV_AT_EPOCH":"6959","OBJECT_ID":"2021-044AQ","INCLINATION":"53.0546","RCS_SIZE":"LARGE","PERIOD":"95.592","SITE":"AFETR","DECAY_DATE":null,"EPOCH":"2022-08-28T21:13:38.758368","ARG_OF_PERICENTER":"75.0746","CLASSIFICATION_TYPE":"U","OBJECT_NAME":"STARLINK-2746"},{"MEAN_MOTION_DOT":"-0.00000578","SEMIMAJOR_AXIS":"6925.331","ECCENTRICITY":"0.00016650","GP_ID":"211212033","ELEMENT_SET_NO":"999","TLE_LINE2":"2 48677  53.0549 137.3087 0001665  75.8334 284.2840 15.06405754 69591","MEAN_MOTION_DDOT":"0.0000000000000","OBJECT_TYPE":"PAYLOAD","COUNTRY_CODE":"US","PERIAPSIS":"546.043","FILE":"3550014","TIME_SYSTEM":"UTC","EPHEMERIS_TYPE":"0","MEAN_MOTION":"15.06405754","BSTAR":"-0.00001986900000","MEAN_ELEMENT_THEORY":"SGP4","RA_OF_ASC_NODE":"137.3087","MEAN_ANOMALY":"284.2840","CENTER_NAME":"EARTH","APOAPSIS":"548.349","TLE_LINE1":"1 48677U 21044AR  22240.87984397 -.00000578  00000-0 -19869-4 0  9997","REF_FRAME":"TEME","LAUNCH_DATE":"2021-05-26","INCLINATION":"53.0549","OBJECT_ID":"2021-044AR","REV_AT_EPOCH":"6959","NORAD_CAT_ID":"48677","ARG_OF_PERICENTER":"75.8334","EPOCH":"2022-08-28T21:06:58.519008","DECAY_DATE":null,"SITE":"AFETR","PERIOD":"95.592","RCS_SIZE":"LARGE","OBJECT_NAME":"STARLINK-2719","CLASSIFICATION_TYPE":"U"}];
